{
  "type": "FeatureCollection",
  "features": [
    {
      "type": "Feature",
      "properties": {
        "norad_id": 29857,
        "name": "FENGYUN 1C DEB",
        "group": "fengyun-1c-debris",
        "lat": 42.377246425594805,
        "lon": 178.47968053632894,
        "alt_km": 1091.9510629479,
        "timestamp": "2025-12-08T23:34:04.241159+00:00",
        "meta_object_name": "FENGYUN 1C DEB",
        "meta_object_id": "1999-025FB",
        "meta_epoch": "2025-12-08T00:18:20.718720",
        "meta_mean_motion": 13.81850876,
        "meta_eccentricity": 0.01929263,
        "meta_inclination": 98.4222,
        "meta_ra_of_asc_node": 349.8445,
        "meta_arg_of_pericenter": 307.3338,
        "meta_mean_anomaly": 51.0375,
        "meta_ephemeris_type": 0,
        "meta_classification_type": "U",
        "meta_norad_cat_id": 29857,
        "meta_element_set_no": 999,
        "meta_rev_at_epoch": 94710,
        "meta_bstar": 0.0024220812,
        "meta_mean_motion_dot": 2.952e-05,
        "meta_mean_motion_ddot": 0,
        "tle_line1": "1 29857U 99025FB  25342.01273980  .00002952  00000+0  24221-2 0  9992",
        "tle_line2": "2 29857  98.4222 349.8445 0192926 307.3338  51.0375 13.81850876947102"
      },
      "geometry": {
        "type": "Point",
        "coordinates": [
          178.47968053632894,
          42.377246425594805
        ]
      }
    },
    {
      "type": "Feature",
      "properties": {
        "norad_id": 29858,
        "name": "FENGYUN 1C DEB",
        "group": "fengyun-1c-debris",
        "lat": 79.45978780652177,
        "lon": -34.55445694788039,
        "alt_km": 827.3956167993274,
        "timestamp": "2025-12-08T23:34:04.241169+00:00",
        "meta_object_name": "FENGYUN 1C DEB",
        "meta_object_id": "1999-025FC",
        "meta_epoch": "2025-12-08T05:57:12.523104",
        "meta_mean_motion": 13.77771658,
        "meta_eccentricity": 0.01987877,
        "meta_inclination": 99.2133,
        "meta_ra_of_asc_node": 84.0077,
        "meta_arg_of_pericenter": 76.2859,
        "meta_mean_anomaly": 339.6915,
        "meta_ephemeris_type": 0,
        "meta_classification_type": "U",
        "meta_norad_cat_id": 29858,
        "meta_element_set_no": 999,
        "meta_rev_at_epoch": 94492,
        "meta_bstar": 0.0017442717,
        "meta_mean_motion_dot": 1.978e-05,
        "meta_mean_motion_ddot": 0,
        "tle_line1": "1 29858U 99025FC  25342.24806161  .00001978  00000+0  17443-2 0  9996",
        "tle_line2": "2 29858  99.2133  84.0077 0198787  76.2859 339.6915 13.77771658944920"
      },
      "geometry": {
        "type": "Point",
        "coordinates": [
          -34.55445694788039,
          79.45978780652177
        ]
      }
    },
    {
      "type": "Feature",
      "properties": {
        "norad_id": 29859,
        "name": "FENGYUN 1C DEB",
        "group": "fengyun-1c-debris",
        "lat": 59.47256655377488,
        "lon": 163.77477171743243,
        "alt_km": 1186.2695418918393,
        "timestamp": "2025-12-08T23:34:04.241179+00:00",
        "meta_object_name": "FENGYUN 1C DEB",
        "meta_object_id": "1999-025FD",
        "meta_epoch": "2025-12-08T12:46:17.512032",
        "meta_mean_motion": 13.7399319,
        "meta_eccentricity": 0.02952107,
        "meta_inclination": 98.335,
        "meta_ra_of_asc_node": 177.7764,
        "meta_arg_of_pericenter": 224.3482,
        "meta_mean_anomaly": 133.3681,
        "meta_ephemeris_type": 0,
        "meta_classification_type": "U",
        "meta_norad_cat_id": 29859,
        "meta_element_set_no": 999,
        "meta_rev_at_epoch": 93922,
        "meta_bstar": 0.0040223282,
        "meta_mean_motion_dot": 5.138e-05,
        "meta_mean_motion_ddot": 0,
        "tle_line1": "1 29859U 99025FD  25342.53214713  .00005138  00000+0  40223-2 0  9999",
        "tle_line2": "2 29859  98.3350 177.7764 0295210 224.3482 133.3681 13.73993190939221"
      },
      "geometry": {
        "type": "Point",
        "coordinates": [
          163.77477171743243,
          59.47256655377488
        ]
      }
    },
    {
      "type": "Feature",
      "properties": {
        "norad_id": 29860,
        "name": "FENGYUN 1C DEB",
        "group": "fengyun-1c-debris",
        "lat": 23.23838068707779,
        "lon": -159.02742275610905,
        "alt_km": 1127.1838532622505,
        "timestamp": "2025-12-08T23:34:04.241190+00:00",
        "meta_object_name": "FENGYUN 1C DEB",
        "meta_object_id": "1999-025FE",
        "meta_epoch": "2025-12-08T02:00:42.631200",
        "meta_mean_motion": 13.77492374,
        "meta_eccentricity": 0.02210277,
        "meta_inclination": 98.6169,
        "meta_ra_of_asc_node": 16.424,
        "meta_arg_of_pericenter": 355.9291,
        "meta_mean_anomaly": 28.1167,
        "meta_ephemeris_type": 0,
        "meta_classification_type": "U",
        "meta_norad_cat_id": 29860,
        "meta_element_set_no": 999,
        "meta_rev_at_epoch": 94075,
        "meta_bstar": 0.0030540788,
        "meta_mean_motion_dot": 3.604e-05,
        "meta_mean_motion_ddot": 0,
        "tle_line1": "1 29860U 99025FE  25342.08382675  .00003604  00000+0  30541-2 0  9992",
        "tle_line2": "2 29860  98.6169  16.4240 0221027 355.9291  28.1167 13.77492374940758"
      },
      "geometry": {
        "type": "Point",
        "coordinates": [
          -159.02742275610905,
          23.23838068707779
        ]
      }
    },
    {
      "type": "Feature",
      "properties": {
        "norad_id": 29865,
        "name": "FENGYUN 1C DEB",
        "group": "fengyun-1c-debris",
        "lat": -80.77590974883397,
        "lon": -31.42522815616736,
        "alt_km": 667.5788394224983,
        "timestamp": "2025-12-08T23:34:04.241200+00:00",
        "meta_object_name": "FENGYUN 1C DEB",
        "meta_object_id": "1999-025FK",
        "meta_epoch": "2025-12-08T06:41:39.424128",
        "meta_mean_motion": 14.82518417,
        "meta_eccentricity": 0.01161303,
        "meta_inclination": 98.92,
        "meta_ra_of_asc_node": 252.5207,
        "meta_arg_of_pericenter": 155.3932,
        "meta_mean_anomaly": 325.6905,
        "meta_ephemeris_type": 0,
        "meta_classification_type": "U",
        "meta_norad_cat_id": 29865,
        "meta_element_set_no": 999,
        "meta_rev_at_epoch": 692,
        "meta_bstar": 0.00074262365,
        "meta_mean_motion_dot": 6.645e-05,
        "meta_mean_motion_ddot": 0,
        "tle_line1": "1 29865U 99025FK  25342.27892852  .00006645  00000+0  74262-3 0  9998",
        "tle_line2": "2 29865  98.9200 252.5207 0116130 155.3932 325.6905 14.82518417  6921"
      },
      "geometry": {
        "type": "Point",
        "coordinates": [
          -31.42522815616736,
          -80.77590974883397
        ]
      }
    },
    {
      "type": "Feature",
      "properties": {
        "norad_id": 29866,
        "name": "FENGYUN 1C DEB",
        "group": "fengyun-1c-debris",
        "lat": -67.55130574215518,
        "lon": -11.201015282023171,
        "alt_km": 625.301561536613,
        "timestamp": "2025-12-08T23:34:04.241211+00:00",
        "meta_object_name": "FENGYUN 1C DEB",
        "meta_object_id": "1999-025FL",
        "meta_epoch": "2025-12-08T12:59:30.797088",
        "meta_mean_motion": 14.64189036,
        "meta_eccentricity": 0.01942055,
        "meta_inclination": 98.0372,
        "meta_ra_of_asc_node": 328.3707,
        "meta_arg_of_pericenter": 228.1791,
        "meta_mean_anomaly": 259.5126,
        "meta_ephemeris_type": 0,
        "meta_classification_type": "U",
        "meta_norad_cat_id": 29866,
        "meta_element_set_no": 999,
        "meta_rev_at_epoch": 265,
        "meta_bstar": 0.00048863883,
        "meta_mean_motion_dot": 3.33e-05,
        "meta_mean_motion_ddot": 0,
        "tle_line1": "1 29866U 99025FL  25342.54132867  .00003330  00000+0  48864-3 0  9999",
        "tle_line2": "2 29866  98.0372 328.3707 0194205 228.1791 259.5126 14.64189036  2658"
      },
      "geometry": {
        "type": "Point",
        "coordinates": [
          -11.201015282023171,
          -67.55130574215518
        ]
      }
    },
    {
      "type": "Feature",
      "properties": {
        "norad_id": 29868,
        "name": "FENGYUN 1C DEB",
        "group": "fengyun-1c-debris",
        "lat": -63.884792700584114,
        "lon": 45.328918324844025,
        "alt_km": 617.8474165049838,
        "timestamp": "2025-12-08T23:34:04.241221+00:00",
        "meta_object_name": "FENGYUN 1C DEB",
        "meta_object_id": "1999-025FN",
        "meta_epoch": "2025-12-08T02:50:43.209024",
        "meta_mean_motion": 14.78334674,
        "meta_eccentricity": 0.01974107,
        "meta_inclination": 97.9497,
        "meta_ra_of_asc_node": 27.9139,
        "meta_arg_of_pericenter": 18.9753,
        "meta_mean_anomaly": 5.8178,
        "meta_ephemeris_type": 0,
        "meta_classification_type": "U",
        "meta_norad_cat_id": 29868,
        "meta_element_set_no": 999,
        "meta_rev_at_epoch": 227,
        "meta_bstar": 0.00076429152,
        "meta_mean_motion_dot": 7.658e-05,
        "meta_mean_motion_ddot": 0,
        "tle_line1": "1 29868U 99025FN  25342.11855566  .00007658  00000+0  76429-3 0  9997",
        "tle_line2": "2 29868  97.9497  27.9139 0197410  18.9753   5.8178 14.78334674  2273"
      },
      "geometry": {
        "type": "Point",
        "coordinates": [
          45.328918324844025,
          -63.884792700584114
        ]
      }
    }
  ]
}